{
    "links": {
        "self": "http://www.neowsapp.com/rest/v1/neo/3371364?api_key=iIulBulltgU6a56xZRHN4H3l9WmuAYTsLGpBGhQ2"
    },
    "id": "3371364",
    "neo_reference_id": "3371364",
    "name": "(2007 FC)",
    "designation": "2007 FC",
    "nasa_jpl_url": "http://ssd.jpl.nasa.gov/sbdb.cgi?sstr=3371364",
    "absolute_magnitude_h": 26.1,
    "estimated_diameter": {
        "kilometers": {
            "estimated_diameter_min": 0.0160160338,
            "estimated_diameter_max": 0.0358129403
        },
        "meters": {
            "estimated_diameter_min": 16.0160337979,
            "estimated_diameter_max": 35.8129403019
        },
        "miles": {
            "estimated_diameter_min": 0.0099518989,
            "estimated_diameter_max": 0.0222531225
        },
        "feet": {
            "estimated_diameter_min": 52.5460443254,
            "estimated_diameter_max": 117.4965270602
        }
    },
    "is_potentially_hazardous_asteroid": false,
    "close_approach_data": [
        {
            "close_approach_date": "2007-02-25",
            "close_approach_date_full": "2007-Feb-25 19:14",
            "epoch_date_close_approach": 1172430840000,
            "relative_velocity": {
                "kilometers_per_second": "6.9897422651",
                "kilometers_per_hour": "25163.072154243",
                "miles_per_hour": "15635.3544727295"
            },
            "miss_distance": {
                "astronomical": "0.0387756762",
                "lunar": "15.0837380418",
                "kilometers": "5800758.567329694",
                "miles": "3604424.2343660172"
            },
            "orbiting_body": "Earth"
        }
    ],
    "orbital_data": {
        "orbit_id": "6",
        "orbit_determination_date": "2017-04-06 09:06:43",
        "first_observation_date": "2007-03-16",
        "last_observation_date": "2007-03-17",
        "data_arc_in_days": 1,
        "observations_used": 11,
        "orbit_uncertainty": "9",
        "minimum_orbit_intersection": ".036854",
        "jupiter_tisserand_invariant": "4.070",
        "epoch_osculation": "2454176.5",
        "eccentricity": ".4252685173265819",
        "semi_major_axis": "1.714666672604178",
        "inclination": "4.657238906075566",
        "ascending_node_longitude": "175.6678510685178",
        "orbital_period": "820.10221886002",
        "perihelion_distance": ".9854729190364958",
        "perihelion_argument": "314.6770522091455",
        "aphelion_distance": "2.443860426171861",
        "perihelion_time": "2454135.490149604155",
        "mean_anomaly": "18.00208047604872",
        "mean_motion": ".4389696695375567",
        "equinox": "J2000",
        "orbit_class": {
            "orbit_class_type": "APO",
            "orbit_class_description": "Near-Earth asteroid orbits which cross the Earth’s orbit similar to that of 1862 Apollo",
            "orbit_class_range": "a (semi-major axis) > 1.0 AU; q (perihelion) < 1.017 AU"
        }
    },
    "is_sentry_object": false
}